GLOBALSTAR M001         
1 25162U 98008A   24203.56920307 -.00000055  00000+0  31650-3 0  9992
2 25162  52.0004 215.4995 0001720 270.9381 238.3925 12.38188912202755
GLOBALSTAR M004         
1 25163U 98008B   24203.61950997 -.00000062  00000+0  23331-3 0  9992
2 25163  52.0022 342.6141 0002211 272.7679 169.7115 12.63365563219908
GLOBALSTAR M003         
1 25165U 98008D   24203.59822094  .00000027  00000+0  12379-2 0  9996
2 25165  51.9921   4.1157 0007676 353.3307  83.3437 12.12020208193139
GLOBALSTAR M014         
1 25306U 98023A   24203.51163230 -.00000074  00000+0  73035-4 0  9993
2 25306  51.9838 279.4934 0001276 125.8184 334.2987 11.65469248152612
GLOBALSTAR M015         
1 25308U 98023C   24203.50357049 -.00000142  00000+0 -15620-2 0  9998
2 25308  51.9837  42.9392 0012105 205.5093 169.3852 11.48849460156073
GLOBALSTAR M008         
1 25309U 98023D   24203.11749275 -.00000105  00000+0 -68673-4 0  9999
2 25309  51.9977  77.8925 0002049 183.8440 334.9342 12.36045513196903
