<?xml version="1.0" encoding="UTF-8"?>
<ndm xmlns:xsi="http://www.w3.org/2001/XMLSchema-instance" xsi:noNamespaceSchemaLocation="https://sanaregistry.org/r/ndmxml_unqualified/ndmxml-2.0.0-master-2.0.xsd">
<omm id="CCSDS_OMM_VERS" version="2.0">
<header><CREATION_DATE/><ORIGINATOR/></header><body><segment><metadata><OBJECT_NAME>GLOBALSTAR M001</OBJECT_NAME><OBJECT_ID>1998-008A</OBJECT_ID><CENTER_NAME>EARTH</CENTER_NAME><REF_FRAME>TEME</REF_FRAME><TIME_SYSTEM>UTC</TIME_SYSTEM><MEAN_ELEMENT_THEORY>SGP4</MEAN_ELEMENT_THEORY></metadata><data><meanElements><EPOCH>2024-07-21T13:39:39.145248</EPOCH><MEAN_MOTION>12.38188912</MEAN_MOTION><ECCENTRICITY>.000172</ECCENTRICITY><INCLINATION>52.0004</INCLINATION><RA_OF_ASC_NODE>215.4995</RA_OF_ASC_NODE><ARG_OF_PERICENTER>270.9381</ARG_OF_PERICENTER><MEAN_ANOMALY>238.3925</MEAN_ANOMALY></meanElements><tleParameters><EPHEMERIS_TYPE>0</EPHEMERIS_TYPE><CLASSIFICATION_TYPE>U</CLASSIFICATION_TYPE><NORAD_CAT_ID>25162</NORAD_CAT_ID><ELEMENT_SET_NO>999</ELEMENT_SET_NO><REV_AT_EPOCH>20286</REV_AT_EPOCH><BSTAR>.3165E-3</BSTAR><MEAN_MOTION_DOT>-.55E-6</MEAN_MOTION_DOT><MEAN_MOTION_DDOT>0</MEAN_MOTION_DDOT></tleParameters></data></segment></body></omm>
<omm id="CCSDS_OMM_VERS" version="2.0">
<header><CREATION_DATE/><ORIGINATOR/></header><body><segment><metadata><OBJECT_NAME>GLOBALSTAR M004</OBJECT_NAME><OBJECT_ID>1998-008B</OBJECT_ID><CENTER_NAME>EARTH</CENTER_NAME><REF_FRAME>TEME</REF_FRAME><TIME_SYSTEM>UTC</TIME_SYSTEM><MEAN_ELEMENT_THEORY>SGP4</MEAN_ELEMENT_THEORY></metadata><data><meanElements><EPOCH>2024-07-21T14:52:05.661408</EPOCH><MEAN_MOTION>12.63365563</MEAN_MOTION><ECCENTRICITY>.0002211</ECCENTRICITY><INCLINATION>52.0022</INCLINATION><RA_OF_ASC_NODE>342.6141</RA_OF_ASC_NODE><ARG_OF_PERICENTER>272.7679</ARG_OF_PERICENTER><MEAN_ANOMALY>169.7115</MEAN_ANOMALY></meanElements><tleParameters><EPHEMERIS_TYPE>0</EPHEMERIS_TYPE><CLASSIFICATION_TYPE>U</CLASSIFICATION_TYPE><NORAD_CAT_ID>25163</NORAD_CAT_ID><ELEMENT_SET_NO>999</ELEMENT_SET_NO><REV_AT_EPOCH>21990</REV_AT_EPOCH><BSTAR>.23331E-3</BSTAR><MEAN_MOTION_DOT>-.62E-6</MEAN_MOTION_DOT><MEAN_MOTION_DDOT>0</MEAN_MOTION_DDOT></tleParameters></data></segment></body></omm>
<omm id="CCSDS_OMM_VERS" version="2.0">
<header><CREATION_DATE/><ORIGINATOR/></header><body><segment><metadata><OBJECT_NAME>GLOBALSTAR M003</OBJECT_NAME><OBJECT_ID>1998-008D</OBJECT_ID><CENTER_NAME>EARTH</CENTER_NAME><REF_FRAME>TEME</REF_FRAME><TIME_SYSTEM>UTC</TIME_SYSTEM><MEAN_ELEMENT_THEORY>SGP4</MEAN_ELEMENT_THEORY></metadata><data><meanElements><EPOCH>2024-07-21T14:21:26.289216</EPOCH><MEAN_MOTION>12.12020208</MEAN_MOTION><ECCENTRICITY>.0007676</ECCENTRICITY><INCLINATION>51.9921</INCLINATION><RA_OF_ASC_NODE>4.1157</RA_OF_ASC_NODE><ARG_OF_PERICENTER>353.3307</ARG_OF_PERICENTER><MEAN_ANOMALY>83.3437</MEAN_ANOMALY></meanElements><tleParameters><EPHEMERIS_TYPE>0</EPHEMERIS_TYPE><CLASSIFICATION_TYPE>U</CLASSIFICATION_TYPE><NORAD_CAT_ID>25165</NORAD_CAT_ID><ELEMENT_SET_NO>999</ELEMENT_SET_NO><REV_AT_EPOCH>19313</REV_AT_EPOCH><BSTAR>.12379E-2</BSTAR><MEAN_MOTION_DOT>.27E-6</MEAN_MOTION_DOT><MEAN_MOTION_DDOT>0</MEAN_MOTION_DDOT></tleParameters></data></segment></body></omm>
<omm id="CCSDS_OMM_VERS" version="2.0">
<header><CREATION_DATE/><ORIGINATOR/></header><body><segment><metadata><OBJECT_NAME>GLOBALSTAR M014</OBJECT_NAME><OBJECT_ID>1998-023A</OBJECT_ID><CENTER_NAME>EARTH</CENTER_NAME><REF_FRAME>TEME</REF_FRAME><TIME_SYSTEM>UTC</TIME_SYSTEM><MEAN_ELEMENT_THEORY>SGP4</MEAN_ELEMENT_THEORY></metadata><data><meanElements><EPOCH>2024-07-21T12:16:45.030720</EPOCH><MEAN_MOTION>11.65469248</MEAN_MOTION><ECCENTRICITY>.0001276</ECCENTRICITY><INCLINATION>51.9838</INCLINATION><RA_OF_ASC_NODE>279.4934</RA_OF_ASC_NODE><ARG_OF_PERICENTER>125.8184</ARG_OF_PERICENTER><MEAN_ANOMALY>334.2987</MEAN_ANOMALY></meanElements><tleParameters><EPHEMERIS_TYPE>0</EPHEMERIS_TYPE><CLASSIFICATION_TYPE>U</CLASSIFICATION_TYPE><NORAD_CAT_ID>25306</NORAD_CAT_ID><ELEMENT_SET_NO>999</ELEMENT_SET_NO><REV_AT_EPOCH>15261</REV_AT_EPOCH><BSTAR>.73035E-4</BSTAR><MEAN_MOTION_DOT>-.74E-6</MEAN_MOTION_DOT><MEAN_MOTION_DDOT>0</MEAN_MOTION_DDOT></tleParameters></data></segment></body></omm>
<omm id="CCSDS_OMM_VERS" version="2.0">
<header><CREATION_DATE/><ORIGINATOR/></header><body><segment><metadata><OBJECT_NAME>GLOBALSTAR M015</OBJECT_NAME><OBJECT_ID>1998-023C</OBJECT_ID><CENTER_NAME>EARTH</CENTER_NAME><REF_FRAME>TEME</REF_FRAME><TIME_SYSTEM>UTC</TIME_SYSTEM><MEAN_ELEMENT_THEORY>SGP4</MEAN_ELEMENT_THEORY></metadata><data><meanElements><EPOCH>2024-07-21T12:05:08.490336</EPOCH><MEAN_MOTION>11.48849460</MEAN_MOTION><ECCENTRICITY>.0012105</ECCENTRICITY><INCLINATION>51.9837</INCLINATION><RA_OF_ASC_NODE>42.9392</RA_OF_ASC_NODE><ARG_OF_PERICENTER>205.5093</ARG_OF_PERICENTER><MEAN_ANOMALY>169.3852</MEAN_ANOMALY></meanElements><tleParameters><EPHEMERIS_TYPE>0</EPHEMERIS_TYPE><CLASSIFICATION_TYPE>U</CLASSIFICATION_TYPE><NORAD_CAT_ID>25308</NORAD_CAT_ID><ELEMENT_SET_NO>999</ELEMENT_SET_NO><REV_AT_EPOCH>15607</REV_AT_EPOCH><BSTAR>-.1562E-2</BSTAR><MEAN_MOTION_DOT>-.142E-5</MEAN_MOTION_DOT><MEAN_MOTION_DDOT>0</MEAN_MOTION_DDOT></tleParameters></data></segment></body></omm>
<omm id="CCSDS_OMM_VERS" version="2.0">
<header><CREATION_DATE/><ORIGINATOR/></header><body><segment><metadata><OBJECT_NAME>GLOBALSTAR M008</OBJECT_NAME><OBJECT_ID>1998-023D</OBJECT_ID><CENTER_NAME>EARTH</CENTER_NAME><REF_FRAME>TEME</REF_FRAME><TIME_SYSTEM>UTC</TIME_SYSTEM><MEAN_ELEMENT_THEORY>SGP4</MEAN_ELEMENT_THEORY></metadata><data><meanElements><EPOCH>2024-07-21T02:49:11.373600</EPOCH><MEAN_MOTION>12.36045513</MEAN_MOTION><ECCENTRICITY>.0002049</ECCENTRICITY><INCLINATION>51.9977</INCLINATION><RA_OF_ASC_NODE>77.8925</RA_OF_ASC_NODE><ARG_OF_PERICENTER>183.8440</ARG_OF_PERICENTER><MEAN_ANOMALY>334.9342</MEAN_ANOMALY></meanElements><tleParameters><EPHEMERIS_TYPE>0</EPHEMERIS_TYPE><CLASSIFICATION_TYPE>U</CLASSIFICATION_TYPE><NORAD_CAT_ID>25309</NORAD_CAT_ID><ELEMENT_SET_NO>999</ELEMENT_SET_NO><REV_AT_EPOCH>19690</REV_AT_EPOCH><BSTAR>-.68673E-4</BSTAR><MEAN_MOTION_DOT>-.105E-5</MEAN_MOTION_DOT><MEAN_MOTION_DDOT>0</MEAN_MOTION_DDOT></tleParameters></data></segment></body></omm>

</ndm>
